GLOBALSTAR M063         
1 26081U 00008A   25071.83449890 -.00000081  00000+0  20950-4 0  9994
2 26081  51.9989   5.3300 0004919 125.5799 267.7165 11.86166770146145
GLOBALSTAR M062         
1 26082U 00008B   25071.89928977 -.00000053  00000+0  31960-3 0  9990
2 26082  51.9876  18.9339 0006595 268.0896 127.0070 12.43460434147148
GLOBALSTAR M060         
1 26083U 00008C   25071.86148914 -.00000129  00000+0 -37414-3 0  9998
2 26083  52.0044 325.4290 0002746 298.0113 139.8216 12.17656153140635
GLOBALSTAR M065         
1 31571U 07020A   25071.77895106  .00000038  00000+0  79556-3 0  9999
2 31571  51.9885 159.7044 0010796  95.5388  53.6939 12.61998927821231
GLOBALSTAR M069         
1 31573U 07020C   25071.91325472 -.00000057  00000+0  29640-3 0  9992
2 31573  51.9934 125.1159 0000204 138.5413  32.3838 12.42142313822201
GLOBALSTAR M071         
1 31576U 07020F   25071.91288177 -.00000087  00000+0  43830-4 0  9996
2 31576  52.0046 140.6014 0000566 225.8735 305.8681 12.18250333483202
